{
  "links" : {
    "next" : "https://api.nasa.gov/neo/rest/v1/feed?start_date=2014-02-16&end_date=2014-02-16&detailed=true&api_key=t0TVs3DtDT2H8Oy2Zy8m2eVrNsAVKAexjcZXUckd",
    "prev" : "https://api.nasa.gov/neo/rest/v1/feed?start_date=2014-02-14&end_date=2014-02-14&detailed=true&api_key=t0TVs3DtDT2H8Oy2Zy8m2eVrNsAVKAexjcZXUckd",
    "self" : "https://api.nasa.gov/neo/rest/v1/feed?start_date=2014-02-15&end_date=2014-02-15&detailed=true&api_key=t0TVs3DtDT2H8Oy2Zy8m2eVrNsAVKAexjcZXUckd"
  },
  "element_count" : 10,
  "near_earth_objects" : {
    "2014-02-15" : [ {
      "links" : {
        "self" : "https://api.nasa.gov/neo/rest/v1/neo/3402618?api_key=t0TVs3DtDT2H8Oy2Zy8m2eVrNsAVKAexjcZXUckd"
      },
      "neo_reference_id" : "3402618",
      "name" : "(2008 CQ116)",
      "nasa_jpl_url" : "http://ssd.jpl.nasa.gov/sbdb.cgi?sstr=3402618",
      "absolute_magnitude_h" : 23.9,
      "estimated_diameter" : {
        "kilometers" : {
          "estimated_diameter_min" : 0.04411182,
          "estimated_diameter_max" : 0.0986370281
        },
        "meters" : {
          "estimated_diameter_min" : 44.1118199997,
          "estimated_diameter_max" : 98.6370281305
        },
        "miles" : {
          "estimated_diameter_min" : 0.0274098057,
          "estimated_diameter_max" : 0.0612901888
        },
        "feet" : {
          "estimated_diameter_min" : 144.7238235278,
          "estimated_diameter_max" : 323.6123073718
        }
      },
      "is_potentially_hazardous_asteroid" : false,
      "close_approach_data" : [ {
        "close_approach_date" : "2014-02-15",
        "epoch_date_close_approach" : 1392451200000,
        "relative_velocity" : {
          "kilometers_per_second" : "16.3908104206",
          "kilometers_per_hour" : "59006.9175141499",
          "miles_per_hour" : "36664.6038298339"
        },
        "miss_distance" : {
          "astronomical" : "0.224901719",
          "lunar" : "87.4867706299",
          "kilometers" : "33644820",
          "miles" : "20905922"
        },
        "orbiting_body" : "Earth"
      } ],
      "orbital_data" : {
        "orbit_id" : "6",
        "orbit_determination_date" : "2017-04-06 09:04:21",
        "orbit_uncertainty" : "7",
        "minimum_orbit_intersection" : ".029633",
        "jupiter_tisserand_invariant" : "5.980",
        "epoch_osculation" : "2458000.5",
        "eccentricity" : ".1960334849341838",
        "semi_major_axis" : "1.00555574934867",
        "inclination" : "20.93522149865921",
        "ascending_node_longitude" : "322.82572421",
        "orbital_period" : "368.3050358874879",
        "perihelion_distance" : ".8084331515082455",
        "perihelion_argument" : "74.81651218837686",
        "aphelion_distance" : "1.202678347189094",
        "perihelion_time" : "2458102.332779726505",
        "mean_anomaly" : "260.4634823599291",
        "mean_motion" : ".9774506588880176",
        "equinox" : "J2000"
      }
    }, {
      "links" : {
        "self" : "https://api.nasa.gov/neo/rest/v1/neo/3662198?api_key=t0TVs3DtDT2H8Oy2Zy8m2eVrNsAVKAexjcZXUckd"
      },
      "neo_reference_id" : "3662198",
      "name" : "(2014 DF)",
      "nasa_jpl_url" : "http://ssd.jpl.nasa.gov/sbdb.cgi?sstr=3662198",
      "absolute_magnitude_h" : 22.4,
      "estimated_diameter" : {
        "kilometers" : {
          "estimated_diameter_min" : 0.0880146521,
          "estimated_diameter_max" : 0.1968067451
        },
        "meters" : {
          "estimated_diameter_min" : 88.0146520901,
          "estimated_diameter_max" : 196.8067450894
        },
        "miles" : {
          "estimated_diameter_min" : 0.0546897524,
          "estimated_diameter_max" : 0.122290004
        },
        "feet" : {
          "estimated_diameter_min" : 288.7619911632,
          "estimated_diameter_max" : 645.6914415591
        }
      },
      "is_potentially_hazardous_asteroid" : false,
      "close_approach_data" : [ {
        "close_approach_date" : "2014-02-15",
        "epoch_date_close_approach" : 1392451200000,
        "relative_velocity" : {
          "kilometers_per_second" : "9.4092355066",
          "kilometers_per_hour" : "33873.2478236226",
          "miles_per_hour" : "21047.5189046281"
        },
        "miss_distance" : {
          "astronomical" : "0.3042536978",
          "lunar" : "118.3546905518",
          "kilometers" : "45515704",
          "miles" : "28282148"
        },
        "orbiting_body" : "Earth"
      } ],
      "orbital_data" : {
        "orbit_id" : "13",
        "orbit_determination_date" : "2017-04-06 08:42:27",
        "orbit_uncertainty" : "2",
        "minimum_orbit_intersection" : ".305843",
        "jupiter_tisserand_invariant" : "4.327",
        "epoch_osculation" : "2458000.5",
        "eccentricity" : ".1845590026339274",
        "semi_major_axis" : "1.577495219836958",
        "inclination" : "18.19707388487211",
        "ascending_node_longitude" : "329.4039863425331",
        "orbital_period" : "723.6865559427893",
        "perihelion_distance" : "1.286354275404061",
        "perihelion_argument" : "163.7440040006784",
        "aphelion_distance" : "1.868636164269855",
        "perihelion_time" : "2458133.275880071364",
        "mean_anomaly" : "293.9502489949946",
        "mean_motion" : ".4974529332398703",
        "equinox" : "J2000"
      }
    }, {
      "links" : {
        "self" : "https://api.nasa.gov/neo/rest/v1/neo/3662443?api_key=t0TVs3DtDT2H8Oy2Zy8m2eVrNsAVKAexjcZXUckd"
      },
      "neo_reference_id" : "3662443",
      "name" : "(2014 DW17)",
      "nasa_jpl_url" : "http://ssd.jpl.nasa.gov/sbdb.cgi?sstr=3662443",
      "absolute_magnitude_h" : 25.4,
      "estimated_diameter" : {
        "kilometers" : {
          "estimated_diameter_min" : 0.022108281,
          "estimated_diameter_max" : 0.0494356193
        },
        "meters" : {
          "estimated_diameter_min" : 22.1082810359,
          "estimated_diameter_max" : 49.435619262
        },
        "miles" : {
          "estimated_diameter_min" : 0.0137374447,
          "estimated_diameter_max" : 0.0307178602
        },
        "feet" : {
          "estimated_diameter_min" : 72.5337327539,
          "estimated_diameter_max" : 162.1903570994
        }
      },
      "is_potentially_hazardous_asteroid" : false,
      "close_approach_data" : [ {
        "close_approach_date" : "2014-02-15",
        "epoch_date_close_approach" : 1392451200000,
        "relative_velocity" : {
          "kilometers_per_second" : "9.3234492112",
          "kilometers_per_hour" : "33564.4171603012",
          "miles_per_hour" : "20855.6235405216"
        },
        "miss_distance" : {
          "astronomical" : "0.0143833885",
          "lunar" : "5.595138073",
          "kilometers" : "2151724.25",
          "miles" : "1337019.5"
        },
        "orbiting_body" : "Earth"
      } ],
      "orbital_data" : {
        "orbit_id" : "8",
        "orbit_determination_date" : "2017-04-06 08:42:21",
        "orbit_uncertainty" : "7",
        "minimum_orbit_intersection" : ".00587239",
        "jupiter_tisserand_invariant" : "5.461",
        "epoch_osculation" : "2458000.5",
        "eccentricity" : ".3325162101893322",
        "semi_major_axis" : "1.135654993431338",
        "inclination" : "3.694289300325845",
        "ascending_node_longitude" : "141.8598914946841",
        "orbital_period" : "442.0465944592851",
        "perihelion_distance" : ".7580312989329586",
        "perihelion_argument" : "279.5536454232508",
        "aphelion_distance" : "1.513278687929718",
        "perihelion_time" : "2457970.442870303306",
        "mean_anomaly" : "24.47833967377459",
        "mean_motion" : ".8143937867915368",
        "equinox" : "J2000"
      }
    } ]
  }
}